[{"OBJECT_NAME":"HAWK-13C","OBJECT_ID":"2026-004AG","EPOCH":"2026-03-09T21:38:59.886528","MEAN_MOTION":15.18214635,"ECCENTRICITY":0.00046883,"INCLINATION":97.4593,"RA_OF_ASC_NODE":69.4519,"ARG_OF_PERICENTER":342.652,"MEAN_ANOMALY":17.4553,"EPHEMERIS_TYPE":0,"CLASSIFICATION_TYPE":"U","NORAD_CAT_ID":67393,"ELEMENT_SET_NO":999,"REV_AT_EPOCH":869,"BSTAR":0.00032608519,"MEAN_MOTION_DOT":6.606e-5,"MEAN_MOTION_DDOT":0},{"OBJECT_NAME":"SL-16 DEB","OBJECT_ID":"1992-093JY","EPOCH":"2026-03-07T13:13:58.279008","MEAN_MOTION":15.07529046,"ECCENTRICITY":0.0041412,"INCLINATION":71.2754,"RA_OF_ASC_NODE":129.6393,"ARG_OF_PERICENTER":153.6297,"MEAN_ANOMALY":274.6618,"EPHEMERIS_TYPE":0,"CLASSIFICATION_TYPE":"U","NORAD_CAT_ID":39708,"ELEMENT_SET_NO":999,"REV_AT_EPOCH":64104,"BSTAR":0.0012088,"MEAN_MOTION_DOT":0.00018716,"MEAN_MOTION_DDOT":0}]
